[{"OBJECT_NAME":"STARLINK-4391","OBJECT_ID":"2022-084A","EPOCH":"2026-03-09T21:21:00.708192","MEAN_MOTION":15.05645954,"ECCENTRICITY":8.158e-5,"INCLINATION":97.6028,"RA_OF_ASC_NODE":131.3697,"ARG_OF_PERICENTER":109.974,"MEAN_ANOMALY":250.1575,"EPHEMERIS_TYPE":0,"CLASSIFICATION_TYPE":"U","NORAD_CAT_ID":53189,"ELEMENT_SET_NO":999,"REV_AT_EPOCH":20008,"BSTAR":9.767621e-6,"MEAN_MOTION_DOT":8.0e-7,"MEAN_MOTION_DDOT":0},{"OBJECT_NAME":"OBJECT G","OBJECT_ID":"2024-205G","EPOCH":"2026-03-09T23:05:54.449664","MEAN_MOTION":15.09392775,"ECCENTRICITY":0.00211709,"INCLINATION":97.4199,"RA_OF_ASC_NODE":141.9686,"ARG_OF_PERICENTER":130.0324,"MEAN_ANOMALY":230.2768,"EPHEMERIS_TYPE":0,"CLASSIFICATION_TYPE":"U","NORAD_CAT_ID":61900,"ELEMENT_SET_NO":999,"REV_AT_EPOCH":7318,"BSTAR":0.00059967322,"MEAN_MOTION_DOT":9.576e-5,"MEAN_MOTION_DDOT":0}]
